NORAD_CAT_ID,OBJECT_NAME,OBJECT_TYPE,EPOCH,MEAN_MOTION,ECCENTRICITY,INCLINATION,RA_OF_ASC_NODE,ARG_OF_PERICENTER,MEAN_ANOMALY,BSTAR,MEAN_MOTION_DOT,MEAN_MOTION_DDOT,TLE_LINE0,TLE_LINE1,TLE_LINE2,SEMIMAJOR_AXIS,PERIOD,APOGEE,PERIGEE,DECAYED
55314.0,STARLINK-5305,PAYLOAD,2023-03-31 20:34:41,15.6994097,0.000339,70.0011,228.3677,263.6868,96.3941,0.00011492,0.00013638,0.0,0 STARLINK-5305,1 55314U 23010AX  23090.85742481  .00013638  00000-0  11492-3 0  9998,2 55314  70.0011 228.3677 0003390 263.6868  96.3941 15.69940970 11709,6737.203,91.723,361.352,356.784,0.0
55314.0,STARLINK-5305,PAYLOAD,2023-04-01 11:52:12,15.69934492,0.0003147,70.0009,226.5757,264.5762,95.5075,7.6109e-05,8.952e-05,0.0,0 STARLINK-5305,1 55314U 23010AX  23091.49459432  .00008952  00000-0  76109-4 0  9990,2 55314  70.0009 226.5757 0003147 264.5762  95.5075 15.69934492 11800,6737.221,91.724,361.207,356.966,0.0
55314.0,STARLINK-5305,PAYLOAD,2023-04-01 21:02:43,15.69943779,0.0003105,70.0007,225.5004,274.2269,85.8571,8.366e-05,9.866e-05,0.0,0 STARLINK-5305,1 55314U 23010AX  23091.87689147  .00009866  00000-0  83660-4 0  9995,2 55314  70.0007 225.5004 0003105 274.2269  85.8571 15.69943779 13056,6737.195,91.723,361.152,356.968,0.0
55314.0,STARLINK-5305,PAYLOAD,2023-04-02 12:20:14,15.69929224,0.0003118,70.0021,223.71,271.1612,88.9227,1.5088e-05,1.602e-05,0.0,0 STARLINK-5305,1 55314U 23010AX  23092.51405725  .00001602  00000-0  15088-4 0  9994,2 55314  70.0021 223.7100 0003118 271.1612  88.9227 15.69929224 11960,6737.236,91.724,361.202,357.001,0.0
55314.0,STARLINK-5305,PAYLOAD,2023-04-02 19:59:00,15.69924622,0.000324,70.0008,222.8118,267.5302,92.5523,1.2031e-05,1.234e-05,0.0,0 STARLINK-5305,1 55314U 23010AX  23092.83264307  .00001234  00000-0  12031-4 0  9994,2 55314  70.0008 222.8118 0003240 267.5302  92.5523 15.69924622 13201,6737.25,91.724,361.298,356.932,0.0
55314.0,STARLINK-5305,PAYLOAD,2023-04-03 02:06:01,15.69915076,0.0002586,70.001,222.0971,269.8284,90.2615,-2.3538e-05,-3.04e-05,0.0,0 STARLINK-5305,1 55314U 23010AX  23093.08751828 -.00003040  00000-0 -23538-4 0  9994,2 55314  70.0010 222.0971 0002586 269.8284  90.2615 15.69915076 12051,6737.277,91.725,360.884,357.4,0.0
55314.0,STARLINK-5305,PAYLOAD,2023-04-03 11:16:31,15.69931525,0.0002936,70.0018,221.0216,271.7361,88.3498,1.838e-05,1.999e-05,0.0,0 STARLINK-5305,1 55314U 23010AX  23093.46980993  .00001999  00000-0  18380-4 0  9991,2 55314  70.0018 221.0216 0002936 271.7361  88.3498 15.69931525 12118,6737.23,91.724,361.073,357.117,0.0
55314.0,STARLINK-5305,PAYLOAD,2023-04-03 18:55:16,15.6994034,0.0003177,70.001,220.1264,267.2166,92.8666,4.3881e-05,5.07e-05,0.0,0 STARLINK-5305,1 55314U 23010AX  23093.78838800  .00005070  00000-0  43881-4 0  9993,2 55314  70.0010 220.1264 0003177 267.2166  92.8666 15.69940340 13353,6737.205,91.723,361.21,356.929,0.0
55314.0,STARLINK-5305,PAYLOAD,2023-04-04 11:44:33,15.69927648,0.0002835,70.0012,218.1557,250.3905,109.6985,2.0209e-05,2.218e-05,0.0,0 STARLINK-5305,1 55314U 23010AX  23094.48927627  .00002218  00000-0  20209-4 0  9997,2 55314  70.0012 218.1557 0002835 250.3905 109.6985 15.69927648 12278,6737.241,91.724,361.016,357.196,0.0
55314.0,STARLINK-5305,PAYLOAD,2023-04-04 20:55:04,15.69925588,0.0003377,70.0008,217.0795,275.2559,84.8252,1.9917e-05,2.183e-05,0.0,0 STARLINK-5305,1 55314U 23010AX  23094.87157880  .00002183  00000-0  19917-4 0  9991,2 55314  70.0008 217.0795 0003377 275.2559  84.8252 15.69925588 13529,6737.247,91.724,361.387,356.837,0.0
55314.0,STARLINK-5305,PAYLOAD,2023-04-05 10:40:50,15.69934543,0.0002905,70.0025,215.4687,262.2781,97.8085,3.2275e-05,3.671e-05,0.0,0 STARLINK-5305,1 55314U 23010AX  23095.44502678  .00003671  00000-0  32275-4 0  9999,2 55314  70.0025 215.4687 0002905 262.2781  97.8085 15.69934543 13618,6737.221,91.724,361.043,357.129,0.0
55314.0,STARLINK-5305,PAYLOAD,2023-04-05 16:47:50,15.69935599,0.0002818,70.0033,214.753,257.4983,102.5897,3.8639e-05,4.438e-05,0.0,0 STARLINK-5305,1 55314U 23010AX  23095.69989173  .00004438  00000-0  38639-4 0  9997,2 55314  70.0033 214.7530 0002818 257.4983 102.5897 15.69935599 12468,6737.218,91.724,360.982,357.185,0.0
55314.0,STARLINK-5305,PAYLOAD,2023-04-06 11:08:51,15.69938121,0.0002483,70.0009,212.6003,230.8215,129.276,-4.3912e-05,-5.491e-05,0.0,0 STARLINK-5305,1 55314U 23010AX  23096.46449023 -.00005491  00000-0 -43912-4 0  9990,2 55314  70.0009 212.6003 0002483 230.8215 129.2760 15.69938121 12586,6737.211,91.723,360.749,357.403,0.0
55314.0,STARLINK-5305,PAYLOAD,2023-04-07 07:01:39,15.69921995,0.0003488,70.0012,210.2731,273.0557,87.0239,2.0425e-05,2.244e-05,0.0,0 STARLINK-5305,1 55314U 23010AX  23097.29281685  .00002244  00000-0  20425-4 0  9995,2 55314  70.0012 210.2731 0003488 273.0557  87.0239 15.69921995 12714,6737.257,91.724,361.472,356.772,0.0
55314.0,STARLINK-5305,PAYLOAD,2023-04-07 10:05:09,15.69929057,0.0003174,70.001,209.915,269.67,90.4132,1.5896e-06,-2.1e-07,0.0,0 STARLINK-5305,1 55314U 23010AX  23097.42024697 -.00000021  00000-0  15896-5 0  9997,2 55314  70.0010 209.9150 0003174 269.6700  90.4132 15.69929057 13926,6737.237,91.724,361.24,356.964,0.0
55314.0,STARLINK-5305,PAYLOAD,2023-04-08 05:57:55,15.69937682,0.0003134,70.0003,207.5854,265.6369,94.4468,3.4163e-05,3.899e-05,0.0,0 STARLINK-5305,1 55314U 23010AX  23098.24855499  .00003899  00000-0  34163-4 0  9992,2 55314  70.0003 207.5854 0003134 265.6369  94.4468 15.69937682 12867,6737.212,91.723,361.189,356.966,0.0
55314.0,STARLINK-5305,PAYLOAD,2023-04-08 10:33:11,15.69915822,0.0002908,70.0006,207.0483,261.1183,98.9684,-1.4936e-05,-2.007e-05,0.0,0 STARLINK-5305,1 55314U 23010AX  23098.43971303 -.00002007  00000-0 -14936-4 0  9994,2 55314  70.0006 207.0483 0002908 261.1183  98.9684 15.69915822 12890,6737.275,91.725,361.099,357.181,0.0
55314.0,STARLINK-5305,PAYLOAD,2023-04-09 09:29:28,15.69915584,0.000326,70.0012,204.3622,264.6208,95.4616,-2.8006e-06,-5.49e-06,0.0,0 STARLINK-5305,1 55314U 23010AX  23099.39546795 -.00000549  00000-0 -28006-5 0  9996,2 55314  70.0012 204.3622 0003260 264.6208  95.4616 15.69915584 14232,6737.276,91.725,361.337,356.944,0.0
55314.0,STARLINK-5305,PAYLOAD,2023-04-09 17:08:13,15.69924936,0.0002763,69.9996,203.4646,259.8279,100.2605,8.4508e-07,-1.11e-06,0.0,0 STARLINK-5305,1 55314U 23010AX  23099.71404983 -.00000111  00000-0  84508-6 0  9998,2 55314  69.9996 203.4646 0002763 259.8279 100.2605 15.69924936 13094,6737.249,91.724,360.975,357.252,0.0
55314.0,STARLINK-5305,PAYLOAD,2023-04-10 08:25:45,15.6992089,0.0002723,70.0004,201.6747,259.3465,100.7424,3.4309e-05,3.914e-05,0.0,0 STARLINK-5305,1 55314U 23010AX  23100.35121921  .00003914  00000-0  34309-4 0  9994,2 55314  70.0004 201.6747 0002723 259.3465 100.7424 15.69920890 14389,6737.26,91.724,360.96,357.291,0.0
55314.0,STARLINK-5305,PAYLOAD,2023-04-11 05:50:17,15.69922704,0.0002524,70.0027,199.1704,262.2352,97.8557,1.8649e-05,2.03e-05,0.0,0 STARLINK-5305,1 55314U 23010AX  23101.24325601  .00002030  00000-0  18649-4 0  9991,2 55314  70.0027 199.1704 0002524 262.2352  97.8557 15.69922704 13338,6737.255,91.724,360.821,357.42,0.0
55314.0,STARLINK-5305,PAYLOAD,2023-04-11 08:53:47,15.69909763,0.0003263,70.0002,198.8094,267.0609,93.0214,-2.5033e-05,-3.22e-05,0.0,0 STARLINK-5305,1 55314U 23010AX  23101.37069384 -.00003220  00000-0 -25033-4 0  9997,2 55314  70.0002 198.8094 0003263 267.0609  93.0214 15.69909763 13358,6737.292,91.725,361.356,356.959,0.0
55314.0,STARLINK-5305,PAYLOAD,2023-04-12 12:25:19,15.69927286,0.000316,70.0011,195.5858,263.9458,96.1377,1.0098e-05,1.002e-05,0.0,0 STARLINK-5305,1 55314U 23010AX  23102.51758682  .00001002  00000-0  10098-4 0  9999,2 55314  70.0011 195.5858 0003160 263.9458  96.1377 15.69927286 13537,6737.242,91.724,361.236,356.978,0.0
55314.0,STARLINK-5305,PAYLOAD,2023-04-13 09:49:51,15.69922813,0.0003427,70.0004,193.0776,266.6827,93.3976,2.9106e-05,3.288e-05,0.0,0 STARLINK-5305,1 55314U 23010AX  23103.40962541  .00003288  00000-0  29106-4 0  9997,2 55314  70.0004 193.0776 0003427 266.6827  93.3976 15.69922813 14869,6737.255,91.724,361.429,356.811,0.0
55314.0,STARLINK-5305,PAYLOAD,2023-04-14 08:46:08,15.6990608,0.0003109,70.0015,190.3926,251.0879,108.998,-9.3886e-06,-1.34e-05,0.0,0 STARLINK-5305,1 55314U 23010AX  23104.36537997 -.00001340  00000-0 -93886-5 0  9992,2 55314  70.0015 190.3926 0003109 251.0879 108.9980 15.69906080 15014,6737.303,91.725,361.262,357.073,0.0
55314.0,STARLINK-5305,PAYLOAD,2023-04-14 16:24:54,15.69915222,0.0003097,70.001,189.4965,243.7674,116.3203,2.4745e-06,8.5e-07,0.0,0 STARLINK-5305,1 55314U 23010AX  23104.68396007  .00000085  00000-0  24745-5 0  9993,2 55314  70.0010 189.4965 0003097 243.7674 116.3203 15.69915222 13879,6737.277,91.725,361.228,357.055,0.0
55314.0,STARLINK-5305,PAYLOAD,2023-04-15 07:42:24,15.69927235,0.0003461,70.0005,187.7037,266.4369,93.6431,9.2604e-06,9.01e-06,0.0,0 STARLINK-5305,1 55314U 23010AX  23105.32111997  .00000901  00000-0  92604-5 0  9994,2 55314  70.0005 187.7037 0003461 266.4369  93.6431 15.69927235 13970,6737.242,91.724,361.439,356.775,0.0
55314.0,STARLINK-5305,PAYLOAD,2023-04-15 13:49:26,15.69905789,0.0002778,70.0017,186.9886,261.8507,98.2373,-1.9319e-05,-2.532e-05,0.0,0 STARLINK-5305,1 55314U 23010AX  23105.57600062 -.00002532  00000-0 -19319-4 0  9992,2 55314  70.0017 186.9886 0002778 261.8507  98.2373 15.69905789 14011,6737.304,91.725,361.04,357.297,0.0
55314.0,STARLINK-5305,PAYLOAD,2023-04-15 15:21:11,15.69917413,0.0002819,70.0021,186.8104,271.1347,88.9526,-3.143e-05,-3.988e-05,0.0,0 STARLINK-5305,1 55314U 23010AX  23105.63971170 -.00003988  00000-0 -31430-4 0  9994,2 55314  70.0021 186.8104 0002819 271.1347  88.9526 15.69917413 14024,6737.27,91.725,361.035,357.236,0.0
55314.0,STARLINK-5305,PAYLOAD,2023-04-16 05:06:56,15.69921036,0.0003405,70.0005,185.1942,268.6312,91.4493,-9.2182e-06,-1.321e-05,0.0,0 STARLINK-5305,1 55314U 23010AX  23106.21315741 -.00001321  00000-0 -92182-5 0  9996,2 55314  70.0005 185.1942 0003405 268.6312  91.4493 15.69921036 14111,6737.26,91.724,361.419,356.831,0.0
